TIANLIAN 1-03           
1 38730U 12040A   17345.96083719  .00000066  00000-0  00000+0 0  9992
2 38730   0.0606 263.2745 0002414 326.1854 207.8813  1.00269602 19818
